OBJECT_NAME,OBJECT_ID,EPOCH,MEAN_MOTION,ECCENTRICITY,INCLINATION,RA_OF_ASC_NODE,ARG_OF_PERICENTER,MEAN_ANOMALY,EPHEMERIS_TYPE,CLASSIFICATION_TYPE,NORAD_CAT_ID,ELEMENT_SET_NO,REV_AT_EPOCH,BSTAR,MEAN_MOTION_DOT,MEAN_MOTION_DDOT
DUBAISAT-1,2009-041B,2026-06-13T08:35:57.496704,14.75117553,.0011731,98.0047,297.6582,84.5903,275.6644,0,U,35682,999,90453,.106443E-3,.668E-5,0
YAOGAN-7,2009-069A,2026-06-13T13:38:30.913440,14.78006634,.00257582,98.0077,50.4577,52.9302,307.4259,0,U,36110,999,88909,.7407005E-4,.484E-5,0
CARTOSAT-2B,2010-035A,2026-06-13T14:49:41.354400,14.78656414,.00108427,97.9959,215.1903,195.7462,164.3413,0,U,36795,999,85932,.72964344E-4,.483E-5,0
YAOGAN-10,2010-038A,2026-06-13T15:51:07.747776,14.85341365,.00017094,97.8980,188.0928,87.3760,50.9829,0,U,36834,999,85668,.25406933E-3,.2131E-4,0
RESOURCESAT-2,2011-015A,2026-06-13T15:21:58.396608,14.21605728,.00101466,98.7644,232.1065,266.9212,93.0804,0,U,37387,999,78567,.53914929E-4,.74E-6,0
RASAT,2011-044D,2026-06-13T15:24:48.327264,14.68163440,.00198603,98.0576,256.0933,200.2327,267.3834,0,U,37791,999,79266,.99968892E-4,.527E-5,0
SRMSAT,2011-058D,2026-06-13T11:49:26.315616,14.11574841,.00118721,19.9718,81.8294,162.9750,353.0513,0,U,37841,999,75729,.51405851E-4,.36E-5,0
ZIYUAN 1-02C (ZY 1-02C),2011-079A,2026-06-13T16:15:06.338880,14.38213089,.00057278,98.4078,232.0589,328.9673,147.5530,0,U,38038,999,75870,.22887028E-3,.652E-5,0
SPOT 6,2012-047A,2026-06-13T15:08:00.473856,14.58561800,.00014808,98.2125,231.9812,92.0205,268.1164,0,U,38755,999,73253,.1119565E-3,.475E-5,0
PLEIADES 1B,2012-068A,2026-06-13T15:35:14.430048,14.58559277,.00016539,98.1951,239.7499,93.0772,267.0617,0,U,39019,999,72033,.11091193E-3,.47E-5,0
GOKTURK 2,2012-073A,2026-06-13T14:56:09.075264,14.75538158,.00017199,97.6823,2.2330,58.2016,301.9362,0,U,39030,999,72398,.10543629E-4,.25E-6,0
LANDSAT 8,2013-008A,2026-06-13T12:32:27.886272,14.57092391,.00013803,98.2302,234.7012,93.3199,266.8157,0,U,39084,999,69736,.84637186E-4,.336E-5,0
SARAL,2013-009A,2026-06-13T14:51:39.577248,14.32855135,.00008843,98.5556,351.2317,330.4102,29.7032,0,U,39086,999,69509,.49282104E-4,.91E-6,0
GAOFEN-1,2013-018A,2026-06-13T14:33:54.209952,14.76532566,.00157015,97.9100,236.7475,279.3812,80.5623,0,U,39150,999,70771,.74112238E-4,.466E-5,0
VNREDSAT 1,2013-021B,2026-06-13T14:31:42.296160,14.64854983,.00017024,97.9087,218.1592,88.7480,271.3919,0,U,39160,999,69976,.18191288E-3,.926E-5,0
ARIRANG-5 (KOMPSAT-5),2013-042A,2026-06-13T15:23:10.881888,15.04482464,.00051049,97.6211,351.3922,129.2419,230.9260,0,U,39227,999,70332,.95842224E-4,.128E-4,0
GPM-CORE,2014-009C,2026-06-13T15:33:26.295264,15.44499145,.00120065,64.9721,319.9786,250.2933,109.6912,0,U,39574,999,69726,.26361919E-3,.12085E-3,0
SENTINEL-1A,2014-016A,2026-06-13T14:18:20.268288,14.59198873,.00014355,98.1777,172.1811,79.2512,280.8849,0,U,39634,999,64949,-.62587817E-4,-.341E-5,0
