{"fetched_at":"2026-06-14T03:48:42Z","count":16735,"tles":[{"name":"GPM-CORE","line1":"1 39574U 14009C   26164.64822101  .00012085  00000+0  26362-3 0  9992","line2":"2 39574  64.9721 319.9786 0012006 250.2933 109.6912 15.44499145697269","category":"Other"},{"name":"SARAL","line1":"1 39086U 13009A   26164.61920807  .00000091  00000+0  49282-4 0  9999","line2":"2 39086  98.5556 351.2317 0000884 330.4102  29.7032 14.32855135695090","category":"Other"},{"name":"SENTINEL-1A","line1":"1 39634U 14016A   26164.59606792 -.00000341  00000+0 -62588-4 0  9992","line2":"2 39634  98.1777 172.1811 0001435  79.2512 280.8849 14.59198873649492","category":"Other"},{"name":"LANDSAT 8","line1":"1 39084U 13008A   26164.52254498  .00000336  00000+0  84637-4 0  9997","line2":"2 39084  98.2302 234.7012 0001380  93.3199 266.8157 14.57092391697362","category":"Other"},{"name":"YAOGAN-7","line1":"1 36110U 09069A   26164.56841335  .00000484  00000+0  74070-4 0  9996","line2":"2 36110  98.0077  50.4577 0025758  52.9302 307.4259 14.78006634889093","category":"Other"},{"name":"ZIYUAN 1-02C (ZY 1-02C)","line1":"1 38038U 11079A   26164.67715670  .00000652  00000+0  22887-3 0  9990","line2":"2 38038  98.4078 232.0589 0005727 328.9673 147.5530 14.38213089758709","category":"Other"},{"name":"PLEIADES 1B","line1":"1 39019U 12068A   26164.64947257  .00000470  00000+0  11091-3 0  9997","line2":"2 39019  98.1951 239.7499 0001653  93.0772 267.0617 14.58559277720330","category":"Other"},{"name":"ARIRANG-5 (KOMPSAT-5)","line1":"1 39227U 13042A   26164.64109817  .00001280  00000+0  95842-4 0  9990","line2":"2 39227  97.6211 351.3922 0005104 129.2419 230.9260 15.04482464703329","category":"Other"},{"name":"GAOFEN-1","line1":"1 39150U 13018A   26164.60687743  .00000466  00000+0  74112-4 0  9995","line2":"2 39150  97.9100 236.7475 0015701 279.3812  80.5623 14.76532566707717","category":"Other"},{"name":"DUBAISAT-1","line1":"1 35682U 09041B   26164.35830436  .00000668  00000+0  10644-3 0  9996","line2":"2 35682  98.0047 297.6582 0011731  84.5903 275.6644 14.75117553904539","category":"Other"},{"name":"CARTOSAT-2B","line1":"1 36795U 10035A   26164.61783975  .00000483  00000+0  72964-4 0  9990","line2":"2 36795  97.9959 215.1903 0010842 195.7462 164.3413 14.78656414859325","category":"Other"},{"name":"YAOGAN-10","line1":"1 36834U 10038A   26164.66050634  .00002131  00000+0  25407-3 0  9992","line2":"2 36834  97.8980 188.0928 0001709  87.3760  50.9829 14.85341365856687","category":"Other"},{"name":"RESOURCESAT-2","line1":"1 37387U 11015A   26164.64025922  .00000074  00000+0  53915-4 0  9992","line2":"2 37387  98.7644 232.1065 0010146 266.9212  93.0804 14.21605728785670","category":"Other"},{"name":"SRMSAT","line1":"1 37841U 11058D   26164.49266569  .00000360  00000+0  51406-4 0  9992","line2":"2 37841  19.9718  81.8294 0011872 162.9750 353.0513 14.11574841757297","category":"Other"},{"name":"SPOT 6","line1":"1 38755U 12047A   26164.63056104  .00000475  00000+0  11196-3 0  9992","line2":"2 38755  98.2125 231.9812 0001480  92.0205 268.1164 14.58561800732530","category":"Other"},{"name":"RASAT","line1":"1 37791U 11044D   26164.64222601  .00000527  00000+0  99969-4 0  9998","line2":"2 37791  98.0576 256.0933 0019860 200.2327 267.3834 14.68163440792662","category":"Other"},{"name":"VNREDSAT 1","line1":"1 39160U 13021B   26164.60535065  .00000926  00000+0  18191-3 0  9994","line2":"2 39160  97.9087 218.1592 0001702  88.7480 271.3919 14.64854983699765","category":"Other"},{"name":"GOKTURK 2","line1":"1 39030U 12073A   26164.62232726  .00000025  00000+0  10544-4 0  9991","line2":"2 39030  97.6823   2.2330 0001719  58.2016 301.9362 14.75538158723982","category":"Other"}]}